{
  "type": "FeatureCollection",
  "features": [
    {
      "type": "Feature",
      "properties": {
        "norad_id": 30860,
        "name": "FENGYUN 1C DEB",
        "group": "fengyun-1c-debris",
        "lat": -69.90502152677571,
        "lon": 100.662111807522,
        "alt_km": 836.3770738084249,
        "timestamp": "2025-12-27T14:26:30.800919+00:00",
        "meta_object_name": "FENGYUN 1C DEB",
        "meta_object_id": "1999-025AWW",
        "meta_epoch": "2025-12-27T04:40:28.428672",
        "meta_mean_motion": 14.25602041,
        "meta_eccentricity": 0.00401374,
        "meta_inclination": 98.9041,
        "meta_ra_of_asc_node": 74.876,
        "meta_arg_of_pericenter": 147.3321,
        "meta_mean_anomaly": 213.0352,
        "meta_ephemeris_type": 0,
        "meta_classification_type": "U",
        "meta_norad_cat_id": 30860,
        "meta_element_set_no": 999,
        "meta_rev_at_epoch": 96722,
        "meta_bstar": 0.0017996592,
        "meta_mean_motion_dot": 4.254e-05,
        "meta_mean_motion_ddot": 0,
        "tle_line1": "1 30860U 99025AWW 25361.19477348  .00004254  00000+0  17997-2 0  9991",
        "tle_line2": "2 30860  98.9041  74.8760 0040137 147.3321 213.0352 14.25602041967225"
      },
      "geometry": {
        "type": "Point",
        "coordinates": [
          100.662111807522,
          -69.90502152677571
        ]
      }
    },
    {
      "type": "Feature",
      "properties": {
        "norad_id": 30862,
        "name": "FENGYUN 1C DEB",
        "group": "fengyun-1c-debris",
        "lat": -46.61253467516082,
        "lon": 102.7266971952062,
        "alt_km": 789.5588473245662,
        "timestamp": "2025-12-27T14:26:30.800929+00:00",
        "meta_object_name": "FENGYUN 1C DEB",
        "meta_object_id": "1999-025AWY",
        "meta_epoch": "2025-12-26T17:44:38.035104",
        "meta_mean_motion": 14.4335918,
        "meta_eccentricity": 0.00509019,
        "meta_inclination": 98.9557,
        "meta_ra_of_asc_node": 92.2168,
        "meta_arg_of_pericenter": 123.1374,
        "meta_mean_anomaly": 31.0423,
        "meta_ephemeris_type": 0,
        "meta_classification_type": "U",
        "meta_norad_cat_id": 30862,
        "meta_element_set_no": 999,
        "meta_rev_at_epoch": 96921,
        "meta_bstar": 0.0032168775,
        "meta_mean_motion_dot": 0.00010991,
        "meta_mean_motion_ddot": 0,
        "tle_line1": "1 30862U 99025AWY 25360.73932911  .00010991  00000+0  32169-2 0  9997",
        "tle_line2": "2 30862  98.9557  92.2168 0050901 123.1374  31.0423 14.43359180969216"
      },
      "geometry": {
        "type": "Point",
        "coordinates": [
          102.7266971952062,
          -46.61253467516082
        ]
      }
    },
    {
      "type": "Feature",
      "properties": {
        "norad_id": 30863,
        "name": "FENGYUN 1C DEB",
        "group": "fengyun-1c-debris",
        "lat": -5.892881080233881,
        "lon": 8.207284091458096,
        "alt_km": 912.446748092053,
        "timestamp": "2025-12-27T14:26:30.800940+00:00",
        "meta_object_name": "FENGYUN 1C DEB",
        "meta_object_id": "1999-025AWZ",
        "meta_epoch": "2025-12-21T07:26:52.161216",
        "meta_mean_motion": 12.40539027,
        "meta_eccentricity": 0.0877249,
        "meta_inclination": 99.1205,
        "meta_ra_of_asc_node": 184.3542,
        "meta_arg_of_pericenter": 232.3747,
        "meta_mean_anomaly": 314.6544,
        "meta_ephemeris_type": 0,
        "meta_classification_type": "U",
        "meta_norad_cat_id": 30863,
        "meta_element_set_no": 999,
        "meta_rev_at_epoch": 59846,
        "meta_bstar": 0.0027378,
        "meta_mean_motion_dot": 1.406e-05,
        "meta_mean_motion_ddot": 0,
        "tle_line1": "1 30863U 99025AWZ 25355.31032594  .00001406  00000+0  27378-2 0  9991",
        "tle_line2": "2 30863  99.1205 184.3542 0877249 232.3747 314.6544 12.40539027598462"
      },
      "geometry": {
        "type": "Point",
        "coordinates": [
          8.207284091458096,
          -5.892881080233881
        ]
      }
    },
    {
      "type": "Feature",
      "properties": {
        "norad_id": 30867,
        "name": "FENGYUN 1C DEB",
        "group": "fengyun-1c-debris",
        "lat": 52.76636415757404,
        "lon": 97.48512439835913,
        "alt_km": 830.934664098866,
        "timestamp": "2025-12-27T14:26:30.800950+00:00",
        "meta_object_name": "FENGYUN 1C DEB",
        "meta_object_id": "1999-025AXD",
        "meta_epoch": "2025-12-26T11:12:10.399392",
        "meta_mean_motion": 14.28151494,
        "meta_eccentricity": 0.0053275,
        "meta_inclination": 97.8766,
        "meta_ra_of_asc_node": 265.9653,
        "meta_arg_of_pericenter": 315.9723,
        "meta_mean_anomaly": 98.5555,
        "meta_ephemeris_type": 0,
        "meta_classification_type": "U",
        "meta_norad_cat_id": 30867,
        "meta_element_set_no": 999,
        "meta_rev_at_epoch": 96733,
        "meta_bstar": 0.0024549,
        "meta_mean_motion_dot": 6.167e-05,
        "meta_mean_motion_ddot": 0,
        "tle_line1": "1 30867U 99025AXD 25360.46678703  .00006167  00000+0  24549-2 0  9991",
        "tle_line2": "2 30867  97.8766 265.9653 0053275 315.9723  98.5555 14.28151494967331"
      },
      "geometry": {
        "type": "Point",
        "coordinates": [
          97.48512439835913,
          52.76636415757404
        ]
      }
    },
    {
      "type": "Feature",
      "properties": {
        "norad_id": 30868,
        "name": "FENGYUN 1C DEB",
        "group": "fengyun-1c-debris",
        "lat": 43.58406673539915,
        "lon": 66.41352703886284,
        "alt_km": 770.2572656340535,
        "timestamp": "2025-12-27T14:26:30.800960+00:00",
        "meta_object_name": "FENGYUN 1C DEB",
        "meta_object_id": "1999-025AXE",
        "meta_epoch": "2025-12-25T03:00:10.115712",
        "meta_mean_motion": 14.11126234,
        "meta_eccentricity": 0.01358087,
        "meta_inclination": 98.2628,
        "meta_ra_of_asc_node": 236.1837,
        "meta_arg_of_pericenter": 177.1984,
        "meta_mean_anomaly": 345.1428,
        "meta_ephemeris_type": 0,
        "meta_classification_type": "U",
        "meta_norad_cat_id": 30868,
        "meta_element_set_no": 999,
        "meta_rev_at_epoch": 96885,
        "meta_bstar": 0.00015734601,
        "meta_mean_motion_dot": 2.7e-06,
        "meta_mean_motion_ddot": 0,
        "tle_line1": "1 30868U 99025AXE 25359.12511708  .00000270  00000+0  15735-3 0  9991",
        "tle_line2": "2 30868  98.2628 236.1837 0135808 177.1984 345.1428 14.11126234968852"
      },
      "geometry": {
        "type": "Point",
        "coordinates": [
          66.41352703886284,
          43.58406673539915
        ]
      }
    },
    {
      "type": "Feature",
      "properties": {
        "norad_id": 30872,
        "name": "FENGYUN 1C DEB",
        "group": "fengyun-1c-debris",
        "lat": 20.24190866928759,
        "lon": 51.61496856847009,
        "alt_km": 736.8541933446068,
        "timestamp": "2025-12-27T14:26:30.800970+00:00",
        "meta_object_name": "FENGYUN 1C DEB",
        "meta_object_id": "1999-025AXJ",
        "meta_epoch": "2025-12-27T02:48:19.075680",
        "meta_mean_motion": 14.39499299,
        "meta_eccentricity": 0.0040352,
        "meta_inclination": 99.1925,
        "meta_ra_of_asc_node": 54.5188,
        "meta_arg_of_pericenter": 345.7384,
        "meta_mean_anomaly": 43.4017,
        "meta_ephemeris_type": 0,
        "meta_classification_type": "U",
        "meta_norad_cat_id": 30872,
        "meta_element_set_no": 999,
        "meta_rev_at_epoch": 97943,
        "meta_bstar": 0.0010052108,
        "meta_mean_motion_dot": 3.115e-05,
        "meta_mean_motion_ddot": 0,
        "tle_line1": "1 30872U 99025AXJ 25361.11688745  .00003115  00000+0  10052-2 0  9991",
        "tle_line2": "2 30872  99.1925  54.5188 0040352 345.7384  43.4017 14.39499299979436"
      },
      "geometry": {
        "type": "Point",
        "coordinates": [
          51.61496856847009,
          20.24190866928759
        ]
      }
    },
    {
      "type": "Feature",
      "properties": {
        "norad_id": 30873,
        "name": "FENGYUN 1C DEB",
        "group": "fengyun-1c-debris",
        "lat": -58.200244510216955,
        "lon": 15.641206412996626,
        "alt_km": 790.519558948401,
        "timestamp": "2025-12-27T14:26:30.800980+00:00",
        "meta_object_name": "FENGYUN 1C DEB",
        "meta_object_id": "1999-025AXK",
        "meta_epoch": "2025-12-25T23:48:05.453856",
        "meta_mean_motion": 14.19149716,
        "meta_eccentricity": 0.01077411,
        "meta_inclination": 98.612,
        "meta_ra_of_asc_node": 359.9287,
        "meta_arg_of_pericenter": 250.1453,
        "meta_mean_anomaly": 108.8085,
        "meta_ephemeris_type": 0,
        "meta_classification_type": "U",
        "meta_norad_cat_id": 30873,
        "meta_element_set_no": 999,
        "meta_rev_at_epoch": 97380,
        "meta_bstar": 0.00018718205,
        "meta_mean_motion_dot": 3.71e-06,
        "meta_mean_motion_ddot": 0,
        "tle_line1": "1 30873U 99025AXK 25359.99172979  .00000371  00000+0  18718-3 0  9991",
        "tle_line2": "2 30873  98.6120 359.9287 0107741 250.1453 108.8085 14.19149716973802"
      },
      "geometry": {
        "type": "Point",
        "coordinates": [
          15.641206412996626,
          -58.200244510216955
        ]
      }
    }
  ]
}